KUIPER-00095            
1 65134U 25171C   25343.00002315 -.00169605  00000+0 -14739-1 0  9996
2 65134  51.9051 192.4507 0005188 168.5192 355.1001 14.97449142  5267
KUIPER-00096            
1 65135U 25171D   25342.91723631  .00020072  00000+0  26518-2 0  9998
2 65135  51.8994 199.4836 0011178 201.7768 158.2721 14.79932750 19459
KUIPER-00097            
1 65136U 25171E   25343.00002315  .00025770  00000+0  35391-2 0  9998
2 65136  51.8989 201.7150 0010406 203.9924 260.1017 14.78159447  5135
KUIPER-00098            
1 65137U 25171F   25342.91191875  .00004260  00000+0  58834-3 0  9997
2 65137  51.8994 204.5081 0008181 188.0762 172.0070 14.79862785 18722
KUIPER-00099            
1 65138U 25171G   25343.00002315  .00026144  00000+0  26472-2 0  9996
2 65138  51.8954 194.4042 0004806 221.8970 187.5489 14.90764993  4141
KUIPER-00100            
1 65139U 25171H   25343.00002315 -.01466134  00000+0 -11959+0 0  9998
2 65139  51.8890 192.4585 0001881 258.4834   4.9297 15.02514890  3215
KUIPER-00102            
1 65140U 25171J   25343.00002315 -.00022595  00000+0 -23805-2 0  9994
2 65140  51.8958 194.3051 0012445 183.5786 138.2550 14.88594747  5737
KUIPER-00103            
1 65141U 25171K   25342.93755662  .00003890  00000+0  53956-3 0  9992
2 65141  51.8975 211.8865 0005960 185.0630 175.0273 14.79888014 19272
